{"type": "FeatureCollection", "features": [ {"type": "Feature", "properties": {"norad_id": 41549, "name": "GSAT0211 (GALILEO 14)", "group": "gnss", "lat": 54.18528147937939, "lon": -27.450395623188797, "alt_km": 23215.694673751714, "timestamp": "2025-12-02T10:50:47.515582+00:00", "meta": {"OBJECT_NAME": "GSAT0211 (GALILEO 14)", "OBJECT_ID": "2016-030A", "EPOCH": "2025-12-01T16:54:04.942368", "MEAN_MOTION": 1.70472896, "ECCENTRICITY": 0.00039, "INCLINATION": 55.1563, "RA_OF_ASC_NODE": 227.1275, "ARG_OF_PERICENTER": 10.5053, "MEAN_ANOMALY": 349.5828, "EPHEMERIS_TYPE": 0, "CLASSIFICATION_TYPE": "U", "NORAD_CAT_ID": 41549, "ELEMENT_SET_NO": 999, "REV_AT_EPOCH": 5930, "BSTAR": 0, "MEAN_MOTION_DOT": 3.3e-07, "MEAN_MOTION_DDOT": 0}, "tle": {"line1": "1 41549U 16030A   25335.70422387  .00000033  00000+0  00000+0 0  9998", "line2": "2 41549  55.1563 227.1275 0003900  10.5053 349.5828  1.70472896 59302"}}, "geometry": {"type": "Point", "coordinates": [-27.450395623188797, 54.18528147937939]}}, {"type": "Feature", "properties": {"norad_id": 41550, "name": "GSAT0210 (GALILEO 13)", "group": "gnss", "lat": -44.78164494113098, "lon": -176.5480860303611, "alt_km": 23225.581458382094, "timestamp": "2025-12-02T10:50:47.515595+00:00", "meta": {"OBJECT_NAME": "GSAT0210 (GALILEO 13)", "OBJECT_ID": "2016-030B", "EPOCH": "2025-12-01T09:00:06.320160", "MEAN_MOTION": 1.70473417, "ECCENTRICITY": 0.0001216, "INCLINATION": 55.1557, "RA_OF_ASC_NODE": 227.1346, "ARG_OF_PERICENTER": 241.6156, "MEAN_ANOMALY": 118.4503, "EPHEMERIS_TYPE": 0, "CLASSIFICATION_TYPE": "U", "NORAD_CAT_ID": 41550, "ELEMENT_SET_NO": 999, "REV_AT_EPOCH": 5929, "BSTAR": 0, "MEAN_MOTION_DOT": 3.2e-07, "MEAN_MOTION_DDOT": 0}, "tle": {"line1": "1 41550U 16030B   25335.37507315  .00000032  00000+0  00000+0 0  9997", "line2": "2 41550  55.1557 227.1346 0001216 241.6156 118.4503  1.70473417 59296"}}, "geometry": {"type": "Point", "coordinates": [-176.5480860303611, -44.78164494113098]}}, {"type": "Feature", "properties": {"norad_id": 41586, "name": "BEIDOU-2 G7 (C03)", "group": "gnss", "lat": -1.7047874070612794, "lon": -15.334936939810499, "alt_km": 35785.70201352159, "timestamp": "2025-12-02T10:50:47.515609+00:00", "meta": {"OBJECT_NAME": "BEIDOU-2 G7 (C03)", "OBJECT_ID": "2016-037A", "EPOCH": "2025-12-02T03:48:01.302624", "MEAN_MOTION": 1.00272343, "ECCENTRICITY": 0.0004474, "INCLINATION": 1.7291, "RA_OF_ASC_NODE": 67.6713, "ARG_OF_PERICENTER": 5.5853, "MEAN_ANOMALY": 165.4999, "EPHEMERIS_TYPE": 0, "CLASSIFICATION_TYPE": "U", "NORAD_CAT_ID": 41586, "ELEMENT_SET_NO": 999, "REV_AT_EPOCH": 491, "BSTAR": 0, "MEAN_MOTION_DOT": -3.33e-06, "MEAN_MOTION_DDOT": 0}, "tle": {"line1": "1 41586U 16037A   25336.15834841 -.00000333  00000+0  00000+0 0  9992", "line2": "2 41586   1.7291  67.6713 0004474   5.5853 165.4999  1.00272343  4910"}}, "geometry": {"type": "Point", "coordinates": [-15.334936939810499, -1.7047874070612794]}}, {"type": "Feature", "properties": {"norad_id": 41589, "name": "EUTELSAT 117 WEST B (WAAS/PRN 131)", "group": "gnss", "lat": -0.004975026675015706, "lon": 117.23809171695595, "alt_km": 35786.36534936526, "timestamp": "2025-12-02T10:50:47.515620+00:00", "meta": {"OBJECT_NAME": "EUTELSAT 117 WEST B (WAAS/PRN 131)", "OBJECT_ID": "2016-038B", "EPOCH": "2025-12-01T14:58:10.977024", "MEAN_MOTION": 1.00272248, "ECCENTRICITY": 1.08e-05, "INCLINATION": 0.0065, "RA_OF_ASC_NODE": 141.8344, "ARG_OF_PERICENTER": 143.4656, "MEAN_ANOMALY": 252.9964, "EPHEMERIS_TYPE": 0, "CLASSIFICATION_TYPE": "U", "NORAD_CAT_ID": 41589, "ELEMENT_SET_NO": 999, "REV_AT_EPOCH": 3468, "BSTAR": 0, "MEAN_MOTION_DOT": 1e-07, "MEAN_MOTION_DDOT": 0}, "tle": {"line1": "1 41589U 16038B   25335.62373816  .00000010  00000+0  00000+0 0  9998", "line2": "2 41589   0.0065 141.8344 0000108 143.4656 252.9964  1.00272248 34687"}}, "geometry": {"type": "Point", "coordinates": [117.23809171695595, -0.004975026675015706]}}, {"type": "Feature", "properties": {"norad_id": 41859, "name": "GSAT0207 (GALILEO 15)", "group": "gnss", "lat": 38.988971242766965, "lon": -107.47406788789532, "alt_km": 23223.303990819317, "timestamp": "2025-12-02T10:50:47.515632+00:00", "meta": {"OBJECT_NAME": "GSAT0207 (GALILEO 15)", "OBJECT_ID": "2016-069A", "EPOCH": "2025-11-30T11:31:32.297952", "MEAN_MOTION": 1.70474248, "ECCENTRICITY": 0.00020596, "INCLINATION": 55.375, "RA_OF_ASC_NODE": 106.5899, "ARG_OF_PERICENTER": 325.7449, "MEAN_ANOMALY": 34.2162, "EPHEMERIS_TYPE": 0, "CLASSIFICATION_TYPE": "U", "NORAD_CAT_ID": 41859, "ELEMENT_SET_NO": 999, "REV_AT_EPOCH": 5601, "BSTAR": 0, "MEAN_MOTION_DOT": 4.7e-07, "MEAN_MOTION_DDOT": 0}, "tle": {"line1": "1 41859U 16069A   25334.48023493  .00000047  00000+0  00000+0 0  9998", "line2": "2 41859  55.3750 106.5899 0002059 325.7449  34.2162  1.70474248 56019"}}, "geometry": {"type": "Point", "coordinates": [-107.47406788789532, 38.988971242766965]}}, {"type": "Feature", "properties": {"norad_id": 41860, "name": "GSAT0212 (GALILEO 16)", "group": "gnss", "lat": -31.895318636292387, "lon": -48.033765957292886, "alt_km": 23232.81784208686, "timestamp": "2025-12-02T10:50:47.515643+00:00", "meta": {"OBJECT_NAME": "GSAT0212 (GALILEO 16)", "OBJECT_ID": "2016-069B", "EPOCH": "2025-12-01T12:10:10.642368", "MEAN_MOTION": 1.70474441, "ECCENTRICITY": 0.00022648, "INCLINATION": 55.3731, "RA_OF_ASC_NODE": 106.5568, "ARG_OF_PERICENTER": 35.1599, "MEAN_ANOMALY": 324.8229, "EPHEMERIS_TYPE": 0, "CLASSIFICATION_TYPE": "U", "NORAD_CAT_ID": 41860, "ELEMENT_SET_NO": 999, "REV_AT_EPOCH": 5628, "BSTAR": 0, "MEAN_MOTION_DOT": 3.8e-07, "MEAN_MOTION_DDOT": 0}, "tle": {"line1": "1 41860U 16069B   25335.50706762  .00000038  00000+0  00000+0 0  9991", "line2": "2 41860  55.3731 106.5568 0002264  35.1599 324.8229  1.70474441 56285"}}, "geometry": {"type": "Point", "coordinates": [-48.033765957292886, -31.895318636292387]}}, {"type": "Feature", "properties": {"norad_id": 41861, "name": "GSAT0213 (GALILEO 17)", "group": "gnss", "lat": -4.6829905047408005, "lon": 103.2741089149753, "alt_km": 23220.908209048182, "timestamp": "2025-12-02T10:50:47.515654+00:00", "meta": {"OBJECT_NAME": "GSAT0213 (GALILEO 17)", "OBJECT_ID": "2016-069C", "EPOCH": "2025-12-01T20:59:28.953888", "MEAN_MOTION": 1.70474717, "ECCENTRICITY": 0.0002063, "INCLINATION": 55.3756, "RA_OF_ASC_NODE": 106.5542, "ARG_OF_PERICENTER": 284.0381, "MEAN_ANOMALY": 75.9044, "EPHEMERIS_TYPE": 0, "CLASSIFICATION_TYPE": "U", "NORAD_CAT_ID": 41861, "ELEMENT_SET_NO": 999, "REV_AT_EPOCH": 5615, "BSTAR": 0, "MEAN_MOTION_DOT": 3.5e-07, "MEAN_MOTION_DDOT": 0}, "tle": {"line1": "1 41861U 16069C   25335.87464067  .00000035  00000+0  00000+0 0  9998", "line2": "2 41861  55.3756 106.5542 0002063 284.0381  75.9044  1.70474717 56157"}}, "geometry": {"type": "Point", "coordinates": [103.2741089149753, -4.6829905047408005]}}, {"type": "Feature", "properties": {"norad_id": 41862, "name": "GSAT0214 (GALILEO 18)", "group": "gnss", "lat": -55.01790447613628, "lon": 7.265525262719207, "alt_km": 23225.28244019316, "timestamp": "2025-12-02T10:50:47.515664+00:00", "meta": {"OBJECT_NAME": "GSAT0214 (GALILEO 18)", "OBJECT_ID": "2016-069D", "EPOCH": "2025-11-29T16:11:01.864032", "MEAN_MOTION": 1.70474561, "ECCENTRICITY": 0.00010374, "INCLINATION": 55.3728, "RA_OF_ASC_NODE": 106.6081, "ARG_OF_PERICENTER": 291.61, "MEAN_ANOMALY": 68.3572, "EPHEMERIS_TYPE": 0, "CLASSIFICATION_TYPE": "U", "NORAD_CAT_ID": 41862, "ELEMENT_SET_NO": 999, "REV_AT_EPOCH": 5624, "BSTAR": 0, "MEAN_MOTION_DOT": 5.1e-07, "MEAN_MOTION_DDOT": 0}, "tle": {"line1": "1 41862U 16069D   25333.67432713  .00000051  00000+0  00000+0 0  9996", "line2": "2 41862  55.3728 106.6081 0001037 291.6100  68.3572  1.70474561 56248"}}, "geometry": {"type": "Point", "coordinates": [7.265525262719207, -55.01790447613628]}}, {"type": "Feature", "properties": {"norad_id": 42709, "name": "SES-15 (WAAS/PRN 133)", "group": "gnss", "lat": 0.028446885869928946, "lon": 105.03905005308816, "alt_km": 35788.12737905156, "timestamp": "2025-12-02T10:50:47.515692+00:00", "meta": {"OBJECT_NAME": "SES-15 (WAAS/PRN 133)", "OBJECT_ID": "2017-026A", "EPOCH": "2025-12-01T20:45:55.897056", "MEAN_MOTION": 1.00268136, "ECCENTRICITY": 3.16e-05, "INCLINATION": 0.0202, "RA_OF_ASC_NODE": 339.5889, "ARG_OF_PERICENTER": 268.6363, "MEAN_ANOMALY": 5.0585, "EPHEMERIS_TYPE": 0, "CLASSIFICATION_TYPE": "U", "NORAD_CAT_ID": 42709, "ELEMENT_SET_NO": 999, "REV_AT_EPOCH": 545, "BSTAR": 0, "MEAN_MOTION_DOT": 8.1e-07, "MEAN_MOTION_DDOT": 0}, "tle": {"line1": "1 42709U 17026A   25335.86523029  .00000081  00000+0  00000+0 0  9998", "line2": "2 42709   0.0202 339.5889 0000316 268.6363   5.0585  1.00268136  5451"}}, "geometry": {"type": "Point", "coordinates": [105.03905005308816, 0.028446885869928946]}}, {"type": "Feature", "properties": {"norad_id": 42738, "name": "QZS-2 (QZSS/PRN 194)", "group": "gnss", "lat": 31.880342605441424, "lon": 17.68363566574374, "alt_km": 38311.65789133974, "timestamp": "2025-12-02T10:50:47.515706+00:00", "meta": {"OBJECT_NAME": "QZS-2 (QZSS/PRN 194)", "OBJECT_ID": "2017-028A", "EPOCH": "2025-11-29T15:03:38.649888", "MEAN_MOTION": 1.0028652, "ECCENTRICITY": 0.07597264, "INCLINATION": 39.7358, "RA_OF_ASC_NODE": 246.0747, "ARG_OF_PERICENTER": 269.3342, "MEAN_ANOMALY": 280.5316, "EPHEMERIS_TYPE": 0, "CLASSIFICATION_TYPE": "U", "NORAD_CAT_ID": 42738, "ELEMENT_SET_NO": 999, "REV_AT_EPOCH": 562, "BSTAR": 0, "MEAN_MOTION_DOT": -1.6e-06, "MEAN_MOTION_DDOT": 0}, "tle": {"line1": "1 42738U 17028A   25333.62753067 -.00000160  00000+0  00000+0 0  9990", "line2": "2 42738  39.7358 246.0747 0759726 269.3342 280.5316  1.00286520  5628"}}, "geometry": {"type": "Point", "coordinates": [17.68363566574374, 31.880342605441424]}}]}